SL-16 R/B               
1 22566U 93016B   25358.08432571  .00000316  00000+0  18672-3 0  9999
2 22566  71.0083  13.9765 0008042  75.0369 285.1643 14.15292055691477
COSMOS 2242             
1 22626U 93024A   25357.93865117  .00001992  00000+0  17434-3 0  9990
2 22626  82.5189 339.1399 0015757 194.2384 165.8397 14.96150021769062
SL-16 R/B               
1 22803U 93059B   25357.88408383  .00000283  00000+0  16371-3 0  9998
2 22803  70.9880 170.9854 0018531 319.9231  40.0524 14.17215037668791
ARIANE 40 R/B           
1 22830U 93061H   25358.14075978  .00000241  00000+0  10413-3 0  9996
2 22830  98.5060  63.4626 0011476 143.7270 216.4694 14.32808602683288
COSMOS 2278             
1 23087U 94023A   25358.13482619  .00000000  00000+0  24690-4 0  9999
2 23087  71.0534 333.1697 0007839 159.2711 200.8731 14.14348242634127
SL-16 R/B               
1 23088U 94023B   25358.07428656 -.00000246  00000+0 -10232-3 0  9994
2 23088  70.9981 229.6837 0002027   4.4961 355.6179 14.15000081635391
SL-16 R/B               
1 23343U 94074B   25358.10702308  .00000466  00000+0  69195-4 0  9992
2 23343  97.7190  26.9592 0008032 104.7646 320.7851 14.79301936676079
SL-16 R/B               
1 23405U 94077B   25357.87340457 -.00000159  00000+0 -56921-4 0  9994
2 23405  70.9820 151.9914 0005033 276.3748  83.6801 14.15552576605503
ARIANE 40+ R/B          
1 23561U 95021B   25358.13366006  .00000313  00000+0  11402-3 0  9999
2 23561  98.4635  65.5845 0006888  18.2120  38.9155 14.39703815608377
SL-16 R/B               
1 23705U 95058B   25358.15932291 -.00000200  00000+0 -77891-4 0  9998
2 23705  71.0218 338.8288 0014705 240.2881 119.6779 14.15481732557160
SL-16 R/B               
1 24298U 96051B   25358.10344791 -.00000035  00000+0  78699-5 0  9990
2 24298  70.7595 335.2298 0019496 247.4270 112.4786 14.12397425510976
ORBVIEW 2 (SEASTAR)     
1 24883U 97037A   25357.99850027  .00000274  00000+0  11152-3 0  9998
2 24883  98.8462 155.3567 0001262 292.8869  67.2183 14.35424694497617
