CCSDS_OMM_VERS = 2.0
CREATION_DATE  = 
ORIGINATOR     = 

OBJECT_NAME    = SL-16 R/B
OBJECT_ID      = 1993-016B
CENTER_NAME    = EARTH
REF_FRAME      = TEME
TIME_SYSTEM    = UTC
MEAN_ELEMENT_THEORY = SGP/SGP4

EPOCH          = 2025-12-24T02:01:25.741344
MEAN_MOTION    = 14.15292055
ECCENTRICITY   = .0008042
INCLINATION    = 71.0083
RA_OF_ASC_NODE = 13.9765
ARG_OF_PERICENTER = 75.0369
MEAN_ANOMALY   = 285.1643

EPHEMERIS_TYPE = 0
CLASSIFICATION_TYPE = U
NORAD_CAT_ID   = 22566
ELEMENT_SET_NO = 999
REV_AT_EPOCH   = 69147
BSTAR          = .18672E-3
MEAN_MOTION_DOT = .316E-5
MEAN_MOTION_DDOT = 0

CCSDS_OMM_VERS = 2.0
CREATION_DATE  = 
ORIGINATOR     = 

OBJECT_NAME    = COSMOS 2242
OBJECT_ID      = 1993-024A
CENTER_NAME    = EARTH
REF_FRAME      = TEME
TIME_SYSTEM    = UTC
MEAN_ELEMENT_THEORY = SGP/SGP4

EPOCH          = 2025-12-23T22:31:39.461088
MEAN_MOTION    = 14.96150021
ECCENTRICITY   = .0015757
INCLINATION    = 82.5189
RA_OF_ASC_NODE = 339.1399
ARG_OF_PERICENTER = 194.2384
MEAN_ANOMALY   = 165.8397

EPHEMERIS_TYPE = 0
CLASSIFICATION_TYPE = U
NORAD_CAT_ID   = 22626
ELEMENT_SET_NO = 999
REV_AT_EPOCH   = 76906
BSTAR          = .17434E-3
MEAN_MOTION_DOT = .1992E-4
MEAN_MOTION_DDOT = 0

CCSDS_OMM_VERS = 2.0
CREATION_DATE  = 
ORIGINATOR     = 

OBJECT_NAME    = SL-16 R/B
OBJECT_ID      = 1993-059B
CENTER_NAME    = EARTH
REF_FRAME      = TEME
TIME_SYSTEM    = UTC
MEAN_ELEMENT_THEORY = SGP/SGP4

EPOCH          = 2025-12-23T21:13:04.842912
MEAN_MOTION    = 14.17215037
ECCENTRICITY   = .0018531
INCLINATION    = 70.9880
RA_OF_ASC_NODE = 170.9854
ARG_OF_PERICENTER = 319.9231
MEAN_ANOMALY   = 40.0524

EPHEMERIS_TYPE = 0
CLASSIFICATION_TYPE = U
NORAD_CAT_ID   = 22803
ELEMENT_SET_NO = 999
REV_AT_EPOCH   = 66879
BSTAR          = .16371E-3
MEAN_MOTION_DOT = .283E-5
MEAN_MOTION_DDOT = 0

CCSDS_OMM_VERS = 2.0
CREATION_DATE  = 
ORIGINATOR     = 

OBJECT_NAME    = ARIANE 40 R/B
OBJECT_ID      = 1993-061H
CENTER_NAME    = EARTH
REF_FRAME      = TEME
TIME_SYSTEM    = UTC
MEAN_ELEMENT_THEORY = SGP/SGP4

EPOCH          = 2025-12-24T03:22:41.644992
MEAN_MOTION    = 14.32808602
ECCENTRICITY   = .0011476
INCLINATION    = 98.5060
RA_OF_ASC_NODE = 63.4626
ARG_OF_PERICENTER = 143.7270
MEAN_ANOMALY   = 216.4694

EPHEMERIS_TYPE = 0
CLASSIFICATION_TYPE = U
NORAD_CAT_ID   = 22830
ELEMENT_SET_NO = 999
REV_AT_EPOCH   = 68328
BSTAR          = .10413E-3
MEAN_MOTION_DOT = .241E-5
MEAN_MOTION_DDOT = 0

CCSDS_OMM_VERS = 2.0
CREATION_DATE  = 
ORIGINATOR     = 

OBJECT_NAME    = COSMOS 2278
OBJECT_ID      = 1994-023A
CENTER_NAME    = EARTH
REF_FRAME      = TEME
TIME_SYSTEM    = UTC
MEAN_ELEMENT_THEORY = SGP/SGP4

EPOCH          = 2025-12-24T03:14:08.982816
MEAN_MOTION    = 14.14348242
ECCENTRICITY   = .0007839
INCLINATION    = 71.0534
RA_OF_ASC_NODE = 333.1697
ARG_OF_PERICENTER = 159.2711
MEAN_ANOMALY   = 200.8731

EPHEMERIS_TYPE = 0
CLASSIFICATION_TYPE = U
NORAD_CAT_ID   = 23087
ELEMENT_SET_NO = 999
REV_AT_EPOCH   = 63412
BSTAR          = .2469E-4
MEAN_MOTION_DOT = 0
MEAN_MOTION_DDOT = 0

CCSDS_OMM_VERS = 2.0
CREATION_DATE  = 
ORIGINATOR     = 

OBJECT_NAME    = SL-16 R/B
OBJECT_ID      = 1994-023B
CENTER_NAME    = EARTH
REF_FRAME      = TEME
TIME_SYSTEM    = UTC
MEAN_ELEMENT_THEORY = SGP/SGP4

EPOCH          = 2025-12-24T01:46:58.358784
MEAN_MOTION    = 14.15000081
ECCENTRICITY   = .0002027
INCLINATION    = 70.9981
RA_OF_ASC_NODE = 229.6837
ARG_OF_PERICENTER = 4.4961
MEAN_ANOMALY   = 355.6179

EPHEMERIS_TYPE = 0
CLASSIFICATION_TYPE = U
NORAD_CAT_ID   = 23088
ELEMENT_SET_NO = 999
REV_AT_EPOCH   = 63539
BSTAR          = -.10232E-3
MEAN_MOTION_DOT = -.246E-5
MEAN_MOTION_DDOT = 0

CCSDS_OMM_VERS = 2.0
CREATION_DATE  = 
ORIGINATOR     = 

OBJECT_NAME    = SL-16 R/B
OBJECT_ID      = 1994-074B
CENTER_NAME    = EARTH
REF_FRAME      = TEME
TIME_SYSTEM    = UTC
MEAN_ELEMENT_THEORY = SGP/SGP4

EPOCH          = 2025-12-24T02:34:06.794112
MEAN_MOTION    = 14.79301936
ECCENTRICITY   = .0008032
INCLINATION    = 97.7190
RA_OF_ASC_NODE = 26.9592
ARG_OF_PERICENTER = 104.7646
MEAN_ANOMALY   = 320.7851

EPHEMERIS_TYPE = 0
CLASSIFICATION_TYPE = U
NORAD_CAT_ID   = 23343
ELEMENT_SET_NO = 999
REV_AT_EPOCH   = 67607
BSTAR          = .69195E-4
MEAN_MOTION_DOT = .466E-5
MEAN_MOTION_DDOT = 0

CCSDS_OMM_VERS = 2.0
CREATION_DATE  = 
ORIGINATOR     = 

OBJECT_NAME    = SL-16 R/B
OBJECT_ID      = 1994-077B
CENTER_NAME    = EARTH
REF_FRAME      = TEME
TIME_SYSTEM    = UTC
MEAN_ELEMENT_THEORY = SGP/SGP4

EPOCH          = 2025-12-23T20:57:42.154848
MEAN_MOTION    = 14.15552576
ECCENTRICITY   = .0005033
INCLINATION    = 70.9820
RA_OF_ASC_NODE = 151.9914
ARG_OF_PERICENTER = 276.3748
MEAN_ANOMALY   = 83.6801

EPHEMERIS_TYPE = 0
CLASSIFICATION_TYPE = U
NORAD_CAT_ID   = 23405
ELEMENT_SET_NO = 999
REV_AT_EPOCH   = 60550
BSTAR          = -.56921E-4
MEAN_MOTION_DOT = -.159E-5
MEAN_MOTION_DDOT = 0

CCSDS_OMM_VERS = 2.0
CREATION_DATE  = 
ORIGINATOR     = 

OBJECT_NAME    = ARIANE 40+ R/B
OBJECT_ID      = 1995-021B
CENTER_NAME    = EARTH
REF_FRAME      = TEME
TIME_SYSTEM    = UTC
MEAN_ELEMENT_THEORY = SGP/SGP4

EPOCH          = 2025-12-24T03:12:28.229184
MEAN_MOTION    = 14.39703815
ECCENTRICITY   = .0006888
INCLINATION    = 98.4635
RA_OF_ASC_NODE = 65.5845
ARG_OF_PERICENTER = 18.2120
MEAN_ANOMALY   = 38.9155

EPHEMERIS_TYPE = 0
CLASSIFICATION_TYPE = U
NORAD_CAT_ID   = 23561
ELEMENT_SET_NO = 999
REV_AT_EPOCH   = 60837
BSTAR          = .11402E-3
MEAN_MOTION_DOT = .313E-5
MEAN_MOTION_DDOT = 0

CCSDS_OMM_VERS = 2.0
CREATION_DATE  = 
ORIGINATOR     = 

OBJECT_NAME    = SL-16 R/B
OBJECT_ID      = 1995-058B
CENTER_NAME    = EARTH
REF_FRAME      = TEME
TIME_SYSTEM    = UTC
MEAN_ELEMENT_THEORY = SGP/SGP4

EPOCH          = 2025-12-24T03:49:25.499424
MEAN_MOTION    = 14.15481732
ECCENTRICITY   = .0014705
INCLINATION    = 71.0218
RA_OF_ASC_NODE = 338.8288
ARG_OF_PERICENTER = 240.2881
MEAN_ANOMALY   = 119.6779

EPHEMERIS_TYPE = 0
CLASSIFICATION_TYPE = U
NORAD_CAT_ID   = 23705
ELEMENT_SET_NO = 999
REV_AT_EPOCH   = 55716
BSTAR          = -.77891E-4
MEAN_MOTION_DOT = -.2E-5
MEAN_MOTION_DDOT = 0

CCSDS_OMM_VERS = 2.0
CREATION_DATE  = 
ORIGINATOR     = 

OBJECT_NAME    = SL-16 R/B
OBJECT_ID      = 1996-051B
CENTER_NAME    = EARTH
REF_FRAME      = TEME
TIME_SYSTEM    = UTC
MEAN_ELEMENT_THEORY = SGP/SGP4

EPOCH          = 2025-12-24T02:28:57.899424
MEAN_MOTION    = 14.12397425
ECCENTRICITY   = .0019496
INCLINATION    = 70.7595
RA_OF_ASC_NODE = 335.2298
ARG_OF_PERICENTER = 247.4270
MEAN_ANOMALY   = 112.4786

EPHEMERIS_TYPE = 0
CLASSIFICATION_TYPE = U
NORAD_CAT_ID   = 24298
ELEMENT_SET_NO = 999
REV_AT_EPOCH   = 51097
BSTAR          = .78699E-5
MEAN_MOTION_DOT = -.35E-6
MEAN_MOTION_DDOT = 0

CCSDS_OMM_VERS = 2.0
CREATION_DATE  = 
ORIGINATOR     = 

OBJECT_NAME    = ORBVIEW 2 (SEASTAR)
OBJECT_ID      = 1997-037A
CENTER_NAME    = EARTH
REF_FRAME      = TEME
TIME_SYSTEM    = UTC
MEAN_ELEMENT_THEORY = SGP/SGP4

EPOCH          = 2025-12-23T23:57:50.423328
MEAN_MOTION    = 14.35424694
ECCENTRICITY   = .0001262
INCLINATION    = 98.8462
RA_OF_ASC_NODE = 155.3567
ARG_OF_PERICENTER = 292.8869
MEAN_ANOMALY   = 67.2183

EPHEMERIS_TYPE = 0
CLASSIFICATION_TYPE = U
NORAD_CAT_ID   = 24883
ELEMENT_SET_NO = 999
REV_AT_EPOCH   = 49761
BSTAR          = .11152E-3
MEAN_MOTION_DOT = .274E-5
MEAN_MOTION_DDOT = 0

